STARLINK-30515          
1 57983U 23151V   26068.18964996 -.00000040  00000+0  12126-4 0  9998
2 57983  43.0055 354.6324 0001348 270.3193  89.7495 15.02535748135505
SEDNA-1                 
1 60580U 24149DS  26068.76583836  .00008721  00000+0  60834-3 0  9998
2 60580  97.6673 149.7617 0008344 330.8481  29.2278 15.05597965 85421
