[{"OBJECT_NAME":"STARLINK-30515","OBJECT_ID":"2023-151V","EPOCH":"2026-03-09T04:33:05.756544","MEAN_MOTION":15.02535748,"ECCENTRICITY":0.00013484,"INCLINATION":43.0055,"RA_OF_ASC_NODE":354.6324,"ARG_OF_PERICENTER":270.3193,"MEAN_ANOMALY":89.7495,"EPHEMERIS_TYPE":0,"CLASSIFICATION_TYPE":"U","NORAD_CAT_ID":57983,"ELEMENT_SET_NO":999,"REV_AT_EPOCH":13550,"BSTAR":1.2125609e-5,"MEAN_MOTION_DOT":-4.0e-7,"MEAN_MOTION_DDOT":0},{"OBJECT_NAME":"SEDNA-1","OBJECT_ID":"2024-149DS","EPOCH":"2026-03-09T18:22:48.434304","MEAN_MOTION":15.05597965,"ECCENTRICITY":0.00083444,"INCLINATION":97.6673,"RA_OF_ASC_NODE":149.7617,"ARG_OF_PERICENTER":330.8481,"MEAN_ANOMALY":29.2278,"EPHEMERIS_TYPE":0,"CLASSIFICATION_TYPE":"U","NORAD_CAT_ID":60580,"ELEMENT_SET_NO":999,"REV_AT_EPOCH":8542,"BSTAR":0.00060833619,"MEAN_MOTION_DOT":8.721e-5,"MEAN_MOTION_DDOT":0}]
